COSMOS 2488             
1 39483U 13076A   21216.65668484 -.00000001  00000-0 -77198-4 0  9992
2 39483  82.4830 196.4321 0020351  13.1696 346.9918 12.42877424345279
COSMOS 2489             
1 39484U 13076B   21216.63041170  .00000002  00000-0 -58948-4 0  9990
2 39484  82.4872 197.2866 0022284  13.9903 346.1800 12.42884689345335
COSMOS 2490             
1 39485U 13076C   21216.68537215  .00000016  00000-0  44799-4 0  9999
2 39485  82.4821 196.1095 0022181  28.0560 332.1718 12.42883713345288
EXPRESS-AM5             
1 39487U 13077A   21216.24771764 -.00000277  00000-0  00000-0 0  9996
2 39487   0.0355 251.5268 0000865 146.9589 143.7378  1.00270704 28527
COSMOS 2493 (SKRL-756 1)
1 39490U 13078A   21217.07752297  .00000312  00000-0  30562-4 0  9992
2 39490  82.4195 177.2124 0018943  68.3740 291.9493 14.88829943412946
COSMOS 2494 (SKRL-756 2)
1 39491U 13078B   21217.08410463  .00000331  00000-0  31416-4 0  9990
2 39491  82.4198 171.6608 0023294  47.7296 312.5892 14.90228503413219
GSAT-14                 
1 39498U 14001A   21216.88687253 -.00000074  00000-0  00000-0 0  9990
2 39498   0.0159  98.1476 0003021 131.7347 117.0367  1.00271691 27581
THAICOM 6               
1 39500U 14002A   21216.88175670 -.00000119  00000-0  00000-0 0  9990
2 39500   0.0496 125.1655 0004868  16.5987 207.8159  1.00273596 27638
TDRS 12                 
1 39504U 14004A   21216.83727006 -.00000259  00000-0  00000+0 0  9991
2 39504   4.1680 342.4366 0003887 156.9514  74.7713  1.00273786 27627
ABS-2                   
1 39508U 14006A   21216.88476604 -.00000083  00000-0  00000-0 0  9993
2 39508   0.0237 341.5528 0002983 124.6697 240.8492  1.00272610 27461
ATHENA-FIDUS            
1 39509U 14006B   21217.16021682  .00000157  00000-0  00000+0 0  9998
2 39509   0.0143 106.0269 0000694  25.7025 277.6775  1.00274552 27680
TURKSAT 4A              
1 39522U 14007A   21217.08849118  .00000149  00000-0  00000+0 0  9998
2 39522   0.0806 270.5522 0002715 294.7061 182.4543  1.00275237 27399
NAVSTAR 69 (USA 248)    
1 39533U 14008A   21215.75266955  .00000087  00000-0  00000-0 0  9997
2 39533  53.6703 221.8500 0054586 205.3450 154.4213  2.00563845 54017
GPM-CORE                
1 39574U 14009C   21216.94233013  .00002597  00000-0  42004-4 0  9996
2 39574  65.0039 185.1738 0010289 275.2970  84.7002 15.55548268422365
EXPRESS-AT1             
1 39612U 14010A   21216.58888431  .00000081  00000-0  00000+0 0  9992
2 39612   0.0392 259.5738 0000435 332.8780 348.9253  1.00274278 27227
EXPRESS-AT2             
1 39613U 14010B   21216.96452896 -.00000278  00000-0  00000+0 0  9996
2 39613   0.0377 246.8182 0000458  38.2487 155.7425  1.00272101 27069
AMAZONAS 4A             
1 39616U 14011A   21216.92186380 -.00000250  00000-0  00000-0 0  9999
2 39616   0.1103  83.1168 0003518  73.0402  55.4587  1.00273435 26874
ASTRA 5B                
1 39617U 14011B   21217.16021682  .00000158  00000-0  00000+0 0  9995
2 39617   0.0301   1.0171 0004103 146.1903 255.9054  1.00275772 27059
COSMOS 2492 [GLONASS-M] 
1 39620U 14012A   21216.37058925 -.00000052  00000-0  00000-0 0  9997
2 39620  65.8353  13.7579 0011068 331.7734  73.8656  2.13103173 57354
SJ-11-06                
1 39624U 14014A   21217.06117189  .00000052  00000-0  20924-4 0  9998
2 39624  98.1840 266.6071 0015074 145.5524 214.6660 14.59061669391495
SENTINEL-1A             
1 39634U 14016A   21217.13333371 -.00000060  00000-0 -31030-5 0  9994
2 39634  98.1821 224.2132 0001441  81.0208 279.1167 14.59197104390894
IRNSS-1B                
1 39635U 14017A   21216.73221292  .00000129  00000-0  00000-0 0  9991
2 39635  28.9721 270.3674 0022549 188.3978 173.4311  1.00274964 26979
LUCH 5V                 
1 39727U 14023A   21217.09904671 -.00000266  00000-0  00000+0 0  9991
2 39727   0.7879  62.6126 0004111  66.6161 315.0268  1.00272362544693
KAZSAT-3                
1 39728U 14023B   21217.06484024  .00000063  00000-0  00000+0 0  9998
2 39728   0.0425 243.2674 0000532 352.6218 159.8121  1.00274185 26628
KAZEOSAT 1              
1 39731U 14024A   21217.07229784  .00000000  00000-0  13613-4 0  9994
2 39731  98.5000 289.6075 0001470  96.0589 264.0762 14.41968781382495
NAVSTAR 70 (USA 251)    
1 39741U 14026A   21215.53422533 -.00000058  00000-0  00000-0 0  9999
2 39741  56.4113  40.6329 0023389 301.2479  58.5722  2.00578737 52860
COSMOS 2496             
1 39761U 14028A   21216.64306146  .00000044  00000-0  24818-3 0  9997
2 39761  82.4473 142.1612 0020424 355.5418   4.5474 12.42884091326763
COSMOS 2497             
1 39762U 14028B   21217.17821627  .00000035  00000-0  18242-3 0  9997
2 39762  82.4528 142.8128 0020643 347.8230  12.2333 12.42887393326839
COSMOS 2498             
1 39763U 14028C   21216.58883320  .00000032  00000-0  15732-3 0  9998
2 39763  82.4490 142.3358 0021232 349.4923  10.5708 12.42896006326760
ALOS-2                  
1 39766U 14029A   21217.08602378 -.00000111  00000-0 -79959-5 0  9993
2 39766  97.9224 313.7512 0001535  89.3019 270.8394 14.79469784388856
UNIFORM 1               
1 39767U 14029B   21217.22803072  .00000167  00000-0  26397-4 0  9990
2 39767  97.8473 310.3025 0007015  53.4725 306.7168 14.84044116389874
SOCRATES                
1 39768U 14029C   21216.79210449  .00000137  00000-0  22525-4 0  9998
2 39768  97.8686 314.2408 0008340  71.4597 288.7523 14.84625762389975
RISING 2                
1 39769U 14029D   21217.09387896  .00000086  00000-0  17284-4 0  9993
2 39769  97.8214 303.0077 0005362  47.5849 312.5822 14.82262258389463
SPROUT                  
1 39770U 14029E   21216.94467447  .00001104  00000-0  12465-3 0  9996
2 39770  97.9190 328.1894 0009919  53.5094 306.7038 14.88547571390551
EUTELSAT 3B             
1 39773U 14030A   21216.93721731  .00000023  00000-0  00000-0 0  9997
2 39773   0.0609  13.0492 0004812 144.9203 136.2153  1.00271968 26242
COSMOS 2500 [GLONASS-M] 
1 40001U 14032A   21216.53555705 -.00000052  00000-0  00000-0 0  9990
2 40001  65.7761  13.6373 0006547 180.8616 210.8610  2.13102406 55573
KAZEOSAT 2              
1 40010U 14033A   21217.07301385  .00000035  00000-0  10926-4 0  9996
2 40010  97.7615 107.6098 0016660  36.8925 323.3438 14.82077383385583
HODOYOSHI-4             
1 40011U 14033B   21217.08196862  .00000128  00000-0  22910-4 0  9999
2 40011  97.7230  97.5964 0027694  34.5294 325.7715 14.81336944385257
UNISAT-6                
1 40012U 14033C   21216.82308687  .00000242  00000-0  42728-4 0  9997
2 40012  97.6737  56.6944 0059541 103.4981 257.2872 14.74349055383326
DEIMOS-2                
1 40013U 14033D   21217.08596480  .00000126  00000-0  20973-4 0  9996
2 40013  97.7859 116.8794 0002665  77.7411 282.4112 14.84860149386245
BUGSAT-1 (TITA)         
1 40014U 14033E   21216.92245022  .00000736  00000-0  71104-4 0  9991
2 40014  98.1154 198.1735 0031948   7.2565 352.9110 14.95802592388817
HODOYOSHI-3             
1 40015U 14033F   21216.86399075  .00000043  00000-0  12645-4 0  9999
2 40015  97.6818  80.9614 0038223  55.8718 304.6110 14.78684137384527
SAUDISAT 4              
1 40016U 14033G   21216.79348557  .00000060  00000-0  15769-4 0  9990
2 40016  97.6639  63.7190 0049802  88.1541 272.5372 14.75368405383701
APRIZESAT 9             
1 40018U 14033J   21216.77793416  .00000074  00000-0  19576-4 0  9993
2 40018  97.6993  39.8286 0072088 149.3898 211.1546 14.70064380382254
APRIZESAT 10            
1 40019U 14033K   21216.43682133  .00000039  00000-0  14926-4 0  9995
2 40019  97.7376  28.7642 0084008 187.4405 172.5560 14.67117621381311
BRITE-CA1 (TORONTO)     
1 40020U 14033L   21216.69915982  .00000116  00000-0  28015-4 0  9996
2 40020  97.7463  27.5259 0086933 193.0170 166.8792 14.66756376381220
DUCHIFAT-1              
1 40021U 14033M   21216.84201034  .00000666  00000-0  72446-4 0  9997
2 40021  97.9736 157.5543 0013163  11.7060 348.4461 14.91409791387495
NANOSATC-BR1            
1 40024U 14033Q   21216.76991854  .00000574  00000-0  64704-4 0  9993
2 40024  97.9517 152.3334 0012643  17.6558 342.5096 14.90498616386799
QB50P1                  
1 40025U 14033R   21217.12411233  .00000314  00000-0  38944-4 0  9992
2 40025  97.9328 147.9415 0013045  24.8869 335.2975 14.89491837387176
DTUSAT-2                
1 40030U 14033W   21216.73835241  .00000363  00000-0  44572-4 0  9991
2 40030  97.9152 143.9751 0012480  22.8964 337.2807 14.89037618386507
QB50P2                  
1 40032U 14033Y   21216.77012028  .00000329  00000-0  40977-4 0  9994
2 40032  97.9158 144.0143 0012419  23.7402 336.4386 14.88996048386481
PERSEUS-M2              
1 40037U 14033AD  21216.73652458  .00000119  00000-0  19530-4 0  9990
2 40037  97.8881 136.0275 0015356  41.4555 318.7823 14.86694364386061
PERSEUS-M1              
1 40039U 14033AF  21216.71689317  .00000095  00000-0  17012-4 0  9990
2 40039  97.8817 134.2812 0015187  40.2622 319.9715 14.86314060385955
POLYITAN-1              
1 40042U 14033AJ  21216.77888445  .00000441  00000-0  52489-4 0  9995
2 40042  97.9421 148.4450 0015121  16.7870 343.3844 14.89308260386501
TIGRISAT                
1 40043U 14033AK  21216.56844840  .00000191  00000-0  35025-4 0  9993
2 40043  97.6702  57.8401 0061228 102.2044 258.6032 14.74562823382923
LEMUR-1                 
1 40044U 14033AL  21216.79039041  .00000179  00000-0  33475-4 0  9991
2 40044  97.6709  57.3599 0060359 103.8302 256.9633 14.74398030382815
AEROCUBE 6A             
1 40045U 14033AM  21216.55372611  .00000232  00000-0  40030-4 0  9994
2 40045  97.6919  65.3161 0059292  91.8791 268.9211 14.75846861383036
AEROCUBE 6B             
1 40046U 14033AN  21216.55988747  .00000368  00000-0  59209-4 0  9996
2 40046  97.6816  64.0998 0058290  90.7938 269.9952 14.75902381383410
SPOT 7                  
1 40053U 14034A   21217.10819063 -.00000025  00000-0  44067-5 0  9999
2 40053  98.2148 284.0115 0001665  94.0271 266.1123 14.58545400377978
